{"type": "FeatureCollection", "features": [ {"type": "Feature", "properties": {"norad_id": 66536, "name": "STARLINK-35640", "group": "last-30-days", "lat": -20.918776579492075, "lon": -89.46471454534198, "alt_km": 416.59246275502574, "timestamp": "2025-12-10T14:53:35.946476+00:00", "meta": {"OBJECT_NAME": "STARLINK-35640", "OBJECT_ID": "2025-265W", "EPOCH": "2025-12-10T06:00:02.000160", "MEAN_MOTION": 15.50596261, "ECCENTRICITY": 0.00016398, "INCLINATION": 42.9999, "RA_OF_ASC_NODE": 68.486, "ARG_OF_PERICENTER": 268.2777, "MEAN_ANOMALY": 32.4366, "EPHEMERIS_TYPE": 0, "CLASSIFICATION_TYPE": "U", "NORAD_CAT_ID": 66536, "ELEMENT_SET_NO": 999, "REV_AT_EPOCH": 457, "BSTAR": -0.0011489025, "MEAN_MOTION_DOT": -0.00067209, "MEAN_MOTION_DDOT": 0}, "tle": {"line1": "1 66536U 25265W   25344.25002315 -.00067209  00000+0 -11489-2 0  9992", "line2": "2 66536  42.9999  68.4860 0001639 268.2777  32.4366 15.50596261  4570"}}, "geometry": {"type": "Point", "coordinates": [-89.46471454534198, -20.918776579492075]}}, {"type": "Feature", "properties": {"norad_id": 66537, "name": "STARLINK-35582", "group": "last-30-days", "lat": -22.09304852402406, "lon": -87.86242235733718, "alt_km": 416.5889053374558, "timestamp": "2025-12-10T14:53:35.946487+00:00", "meta": {"OBJECT_NAME": "STARLINK-35582", "OBJECT_ID": "2025-265X", "EPOCH": "2025-12-10T06:00:02.000160", "MEAN_MOTION": 15.50527495, "ECCENTRICITY": 0.00014331, "INCLINATION": 43, "RA_OF_ASC_NODE": 68.4816, "ARG_OF_PERICENTER": 262.7551, "MEAN_ANOMALY": 39.8889, "EPHEMERIS_TYPE": 0, "CLASSIFICATION_TYPE": "U", "NORAD_CAT_ID": 66537, "ELEMENT_SET_NO": 999, "REV_AT_EPOCH": 459, "BSTAR": 0.00096158338, "MEAN_MOTION_DOT": 0.00056373, "MEAN_MOTION_DDOT": 0}, "tle": {"line1": "1 66537U 25265X   25344.25002315  .00056373  00000+0  96158-3 0  9998", "line2": "2 66537  43.0000  68.4816 0001433 262.7551  39.8889 15.50527495  4594"}}, "geometry": {"type": "Point", "coordinates": [-87.86242235733718, -22.09304852402406]}}, {"type": "Feature", "properties": {"norad_id": 66538, "name": "STARLINK-35577", "group": "last-30-days", "lat": -23.27046463739686, "lon": -86.2075332421917, "alt_km": 416.6954692368363, "timestamp": "2025-12-10T14:53:35.946496+00:00", "meta": {"OBJECT_NAME": "STARLINK-35577", "OBJECT_ID": "2025-265Y", "EPOCH": "2025-12-10T06:00:02.000160", "MEAN_MOTION": 15.5059248, "ECCENTRICITY": 0.0001613, "INCLINATION": 42.9999, "RA_OF_ASC_NODE": 68.4756, "ARG_OF_PERICENTER": 265.9678, "MEAN_ANOMALY": 38.5841, "EPHEMERIS_TYPE": 0, "CLASSIFICATION_TYPE": "U", "NORAD_CAT_ID": 66538, "ELEMENT_SET_NO": 999, "REV_AT_EPOCH": 459, "BSTAR": -0.0010646119, "MEAN_MOTION_DOT": -0.00062333, "MEAN_MOTION_DDOT": 0}, "tle": {"line1": "1 66538U 25265Y   25344.25002315 -.00062333  00000+0 -10646-2 0  9991", "line2": "2 66538  42.9999  68.4756 0001613 265.9678  38.5841 15.50592480  4598"}}, "geometry": {"type": "Point", "coordinates": [-86.2075332421917, -23.27046463739686]}}, {"type": "Feature", "properties": {"norad_id": 66539, "name": "STARLINK-35697", "group": "last-30-days", "lat": -24.41586481711162, "lon": -84.54337221810907, "alt_km": 416.7505110053007, "timestamp": "2025-12-10T14:53:35.946509+00:00", "meta": {"OBJECT_NAME": "STARLINK-35697", "OBJECT_ID": "2025-265Z", "EPOCH": "2025-12-10T06:00:02.000160", "MEAN_MOTION": 15.50581817, "ECCENTRICITY": 0.00016162, "INCLINATION": 43, "RA_OF_ASC_NODE": 68.4707, "ARG_OF_PERICENTER": 266.3692, "MEAN_ANOMALY": 40.0975, "EPHEMERIS_TYPE": 0, "CLASSIFICATION_TYPE": "U", "NORAD_CAT_ID": 66539, "ELEMENT_SET_NO": 999, "REV_AT_EPOCH": 459, "BSTAR": -0.00074412131, "MEAN_MOTION_DOT": -0.00043757, "MEAN_MOTION_DDOT": 0}, "tle": {"line1": "1 66539U 25265Z   25344.25002315 -.00043757  00000+0 -74412-3 0  9993", "line2": "2 66539  43.0000  68.4707 0001616 266.3692  40.0975 15.50581817  4592"}}, "geometry": {"type": "Point", "coordinates": [-84.54337221810907, -24.41586481711162]}}, {"type": "Feature", "properties": {"norad_id": 66540, "name": "STARLINK-35818", "group": "last-30-days", "lat": -25.550664479738288, "lon": -82.83636925891945, "alt_km": 416.90130025803137, "timestamp": "2025-12-10T14:53:35.946518+00:00", "meta": {"OBJECT_NAME": "STARLINK-35818", "OBJECT_ID": "2025-265AA", "EPOCH": "2025-12-10T06:00:02.000160", "MEAN_MOTION": 15.50598599, "ECCENTRICITY": 0.00015896, "INCLINATION": 42.9999, "RA_OF_ASC_NODE": 68.4658, "ARG_OF_PERICENTER": 271.266, "MEAN_ANOMALY": 37.1159, "EPHEMERIS_TYPE": 0, "CLASSIFICATION_TYPE": "U", "NORAD_CAT_ID": 66540, "ELEMENT_SET_NO": 999, "REV_AT_EPOCH": 459, "BSTAR": -0.0011985241, "MEAN_MOTION_DOT": -0.00070077, "MEAN_MOTION_DDOT": 0}, "tle": {"line1": "1 66540U 25265AA  25344.25002315 -.00070077  00000+0 -11985-2 0  9995", "line2": "2 66540  42.9999  68.4658 0001589 271.2660  37.1159 15.50598599  4599"}}, "geometry": {"type": "Point", "coordinates": [-82.83636925891945, -25.550664479738288]}}, {"type": "Feature", "properties": {"norad_id": 66541, "name": "STARLINK-35796", "group": "last-30-days", "lat": -26.661418078627886, "lon": -81.10283035150458, "alt_km": 416.9047208225038, "timestamp": "2025-12-10T14:53:35.946526+00:00", "meta": {"OBJECT_NAME": "STARLINK-35796", "OBJECT_ID": "2025-265AB", "EPOCH": "2025-12-10T06:00:02.000160", "MEAN_MOTION": 15.505982, "ECCENTRICITY": 0.00016229, "INCLINATION": 42.9999, "RA_OF_ASC_NODE": 68.4611, "ARG_OF_PERICENTER": 269.0013, "MEAN_ANOMALY": 41.2979, "EPHEMERIS_TYPE": 0, "CLASSIFICATION_TYPE": "U", "NORAD_CAT_ID": 66541, "ELEMENT_SET_NO": 999, "REV_AT_EPOCH": 459, "BSTAR": -0.0011894588, "MEAN_MOTION_DOT": -0.00069553, "MEAN_MOTION_DDOT": 0}, "tle": {"line1": "1 66541U 25265AB  25344.25002315 -.00069553  00000+0 -11895-2 0  9993", "line2": "2 66541  42.9999  68.4611 0001622 269.0013  41.2979 15.50598200  4599"}}, "geometry": {"type": "Point", "coordinates": [-81.10283035150458, -26.661418078627886]}}, {"type": "Feature", "properties": {"norad_id": 66542, "name": "STARLINK-35833", "group": "last-30-days", "lat": -27.75069094116333, "lon": -79.33535367417326, "alt_km": 416.9664591883866, "timestamp": "2025-12-10T14:53:35.946535+00:00", "meta": {"OBJECT_NAME": "STARLINK-35833", "OBJECT_ID": "2025-265AC", "EPOCH": "2025-12-10T06:00:02.000160", "MEAN_MOTION": 15.50594806, "ECCENTRICITY": 0.00016073, "INCLINATION": 43, "RA_OF_ASC_NODE": 68.4565, "ARG_OF_PERICENTER": 269.4412, "MEAN_ANOMALY": 42.7776, "EPHEMERIS_TYPE": 0, "CLASSIFICATION_TYPE": "U", "NORAD_CAT_ID": 66542, "ELEMENT_SET_NO": 999, "REV_AT_EPOCH": 459, "BSTAR": -0.0011142593, "MEAN_MOTION_DOT": -0.00065205, "MEAN_MOTION_DDOT": 0}, "tle": {"line1": "1 66542U 25265AC  25344.25002315 -.00065205  00000+0 -11143-2 0  9990", "line2": "2 66542  43.0000  68.4565 0001607 269.4412  42.7776 15.50594806  4592"}}, "geometry": {"type": "Point", "coordinates": [-79.33535367417326, -27.75069094116333]}}, {"type": "Feature", "properties": {"norad_id": 66543, "name": "STARLINK-35315", "group": "last-30-days", "lat": -28.81369147312729, "lon": -77.53832934427412, "alt_km": 416.94392042702293, "timestamp": "2025-12-10T14:53:35.946544+00:00", "meta": {"OBJECT_NAME": "STARLINK-35315", "OBJECT_ID": "2025-265AD", "EPOCH": "2025-12-10T06:00:02.000160", "MEAN_MOTION": 15.50592289, "ECCENTRICITY": 0.00016419, "INCLINATION": 43, "RA_OF_ASC_NODE": 68.4515, "ARG_OF_PERICENTER": 266.3374, "MEAN_ANOMALY": 47.7923, "EPHEMERIS_TYPE": 0, "CLASSIFICATION_TYPE": "U", "NORAD_CAT_ID": 66543, "ELEMENT_SET_NO": 999, "REV_AT_EPOCH": 448, "BSTAR": -0.00099069801, "MEAN_MOTION_DOT": -0.0005806, "MEAN_MOTION_DDOT": 0}, "tle": {"line1": "1 66543U 25265AD  25344.25002315 -.00058060  00000+0 -99070-3 0  9998", "line2": "2 66543  43.0000  68.4515 0001641 266.3374  47.7923 15.50592289  4489"}}, "geometry": {"type": "Point", "coordinates": [-77.53832934427412, -28.81369147312729]}}, {"type": "Feature", "properties": {"norad_id": 66544, "name": "STARLINK-35728", "group": "last-30-days", "lat": -29.858779655909096, "lon": -75.6928980245831, "alt_km": 417.0072046860123, "timestamp": "2025-12-10T14:53:35.946554+00:00", "meta": {"OBJECT_NAME": "STARLINK-35728", "OBJECT_ID": "2025-265AE", "EPOCH": "2025-12-10T06:00:02.000160", "MEAN_MOTION": 15.50601018, "ECCENTRICITY": 0.00015958, "INCLINATION": 43, "RA_OF_ASC_NODE": 68.4464, "ARG_OF_PERICENTER": 265.5013, "MEAN_ANOMALY": 50.5475, "EPHEMERIS_TYPE": 0, "CLASSIFICATION_TYPE": "U", "NORAD_CAT_ID": 66544, "ELEMENT_SET_NO": 999, "REV_AT_EPOCH": 459, "BSTAR": -0.0012520519, "MEAN_MOTION_DOT": -0.00073169, "MEAN_MOTION_DDOT": 0}, "tle": {"line1": "1 66544U 25265AE  25344.25002315 -.00073169  00000+0 -12521-2 0  9991", "line2": "2 66544  43.0000  68.4464 0001595 265.5013  50.5475 15.50601018  4599"}}, "geometry": {"type": "Point", "coordinates": [-75.6928980245831, -29.858779655909096]}}, {"type": "Feature", "properties": {"norad_id": 66545, "name": "SHIJIAN-30A", "group": "last-30-days", "lat": -27.778345954284376, "lon": -172.70233770433572, "alt_km": 528.6802039877903, "timestamp": "2025-12-10T14:53:35.946566+00:00", "meta": {"OBJECT_NAME": "SHIJIAN-30A", "OBJECT_ID": "2025-266A", "EPOCH": "2025-12-10T06:01:46.100928", "MEAN_MOTION": 15.1556804, "ECCENTRICITY": 0.00127572, "INCLINATION": 51.7989, "RA_OF_ASC_NODE": 344.5205, "ARG_OF_PERICENTER": 347.379, "MEAN_ANOMALY": 12.6865, "EPHEMERIS_TYPE": 0, "CLASSIFICATION_TYPE": "U", "NORAD_CAT_ID": 66545, "ELEMENT_SET_NO": 999, "REV_AT_EPOCH": 320, "BSTAR": 0.00080298616, "MEAN_MOTION_DOT": 0.00015179, "MEAN_MOTION_DDOT": 0}, "tle": {"line1": "1 66545U 25266A   25344.25122802  .00015179  00000+0  80299-3 0  9990", "line2": "2 66545  51.7989 344.5205 0012757 347.3790  12.6865 15.15568040  3203"}}, "geometry": {"type": "Point", "coordinates": [-172.70233770433572, -27.778345954284376]}}]}